{"fetched_at":"2026-03-30T09:12:31Z","count":15922,"tles":[{"name":"STARLINK-33919","line1":"1 63699U 25087C   26087.82110227  .00017207  00000+0  59166-3 0  9997","line2":"2 63699  53.1594 131.0534 0001639  78.2932 281.8253 15.30205058 52127","category":"Starlink"}]}